CCSDS_OMM_VERS = 2.0
CREATION_DATE  = 
ORIGINATOR     = 

OBJECT_NAME    = SL-14 R/B
OBJECT_ID      = 1986-046B
CENTER_NAME    = EARTH
REF_FRAME      = TEME
TIME_SYSTEM    = UTC
MEAN_ELEMENT_THEORY = SGP/SGP4

EPOCH          = 2026-02-15T13:55:13.715040
MEAN_MOTION    = 14.85568680
ECCENTRICITY   = .0021744
INCLINATION    = 82.4802
RA_OF_ASC_NODE = 101.0773
ARG_OF_PERICENTER = 303.1791
MEAN_ANOMALY   = 56.7339

EPHEMERIS_TYPE = 0
CLASSIFICATION_TYPE = U
NORAD_CAT_ID   = 16792
ELEMENT_SET_NO = 999
REV_AT_EPOCH   = 12312
BSTAR          = .5299E-4
MEAN_MOTION_DOT = .484E-5
MEAN_MOTION_DDOT = 0

CCSDS_OMM_VERS = 2.0
CREATION_DATE  = 
ORIGINATOR     = 

OBJECT_NAME    = SL-14 R/B
OBJECT_ID      = 1986-055B
CENTER_NAME    = EARTH
REF_FRAME      = TEME
TIME_SYSTEM    = UTC
MEAN_ELEMENT_THEORY = SGP/SGP4

EPOCH          = 2026-02-15T18:56:21.058368
MEAN_MOTION    = 14.85620220
ECCENTRICITY   = .00199995
INCLINATION    = 82.5231
RA_OF_ASC_NODE = 147.2532
ARG_OF_PERICENTER = 47.9697
MEAN_ANOMALY   = 70.5664

EPHEMERIS_TYPE = 0
CLASSIFICATION_TYPE = U
NORAD_CAT_ID   = 16882
ELEMENT_SET_NO = 999
REV_AT_EPOCH   = 11611
BSTAR          = .60213927E-4
MEAN_MOTION_DOT = .547E-5
MEAN_MOTION_DDOT = 0

CCSDS_OMM_VERS = 2.0
CREATION_DATE  = 
ORIGINATOR     = 

OBJECT_NAME    = AJISAI (EGS)
OBJECT_ID      = 1986-061A
CENTER_NAME    = EARTH
REF_FRAME      = TEME
TIME_SYSTEM    = UTC
MEAN_ELEMENT_THEORY = SGP/SGP4

EPOCH          = 2026-02-15T23:03:48.416256
MEAN_MOTION    = 12.44515335
ECCENTRICITY   = .00112302
INCLINATION    = 50.0082
RA_OF_ASC_NODE = 160.1635
ARG_OF_PERICENTER = 230.9729
MEAN_ANOMALY   = 237.2072

EPHEMERIS_TYPE = 0
CLASSIFICATION_TYPE = U
NORAD_CAT_ID   = 16908
ELEMENT_SET_NO = 999
REV_AT_EPOCH   = 46529
BSTAR          = -.10937486E-3
MEAN_MOTION_DOT = -.113E-5
MEAN_MOTION_DDOT = 0

CCSDS_OMM_VERS = 2.0
CREATION_DATE  = 
ORIGINATOR     = 

OBJECT_NAME    = COSMOS 1812
OBJECT_ID      = 1987-003A
CENTER_NAME    = EARTH
REF_FRAME      = TEME
TIME_SYSTEM    = UTC
MEAN_ELEMENT_THEORY = SGP/SGP4

EPOCH          = 2026-02-15T22:38:53.550240
MEAN_MOTION    = 16.00002667
ECCENTRICITY   = .00024325
INCLINATION    = 82.4754
RA_OF_ASC_NODE = 220.3944
ARG_OF_PERICENTER = 305.0117
MEAN_ANOMALY   = 55.0933

EPHEMERIS_TYPE = 0
CLASSIFICATION_TYPE = U
NORAD_CAT_ID   = 17295
ELEMENT_SET_NO = 999
REV_AT_EPOCH   = 14098
BSTAR          = .76774158E-3
MEAN_MOTION_DOT = .38911E-2
MEAN_MOTION_DDOT = .62663123E-4

CCSDS_OMM_VERS = 2.0
CREATION_DATE  = 
ORIGINATOR     = 

OBJECT_NAME    = SL-14 R/B
OBJECT_ID      = 1987-024B
CENTER_NAME    = EARTH
REF_FRAME      = TEME
TIME_SYSTEM    = UTC
MEAN_ELEMENT_THEORY = SGP/SGP4

EPOCH          = 2026-02-15T16:31:54.254496
MEAN_MOTION    = 14.86111004
ECCENTRICITY   = .00175406
INCLINATION    = 82.5279
RA_OF_ASC_NODE = 113.4435
ARG_OF_PERICENTER = 338.2754
MEAN_ANOMALY   = 21.7716

EPHEMERIS_TYPE = 0
CLASSIFICATION_TYPE = U
NORAD_CAT_ID   = 17567
ELEMENT_SET_NO = 999
REV_AT_EPOCH   = 8486
BSTAR          = .51838679E-4
MEAN_MOTION_DOT = .479E-5
MEAN_MOTION_DDOT = 0

CCSDS_OMM_VERS = 2.0
CREATION_DATE  = 
ORIGINATOR     = 

OBJECT_NAME    = COSMOS 1833
OBJECT_ID      = 1987-027A
CENTER_NAME    = EARTH
REF_FRAME      = TEME
TIME_SYSTEM    = UTC
MEAN_ELEMENT_THEORY = SGP/SGP4

EPOCH          = 2026-02-15T21:58:21.042912
MEAN_MOTION    = 14.13057364
ECCENTRICITY   = .00248919
INCLINATION    = 70.9225
RA_OF_ASC_NODE = 11.7786
ARG_OF_PERICENTER = 243.8922
MEAN_ANOMALY   = 115.9638

EPHEMERIS_TYPE = 0
CLASSIFICATION_TYPE = U
NORAD_CAT_ID   = 17589
ELEMENT_SET_NO = 999
REV_AT_EPOCH   = 724
BSTAR          = .8374617E-5
MEAN_MOTION_DOT = -.33E-6
MEAN_MOTION_DDOT = 0

CCSDS_OMM_VERS = 2.0
CREATION_DATE  = 
ORIGINATOR     = 

OBJECT_NAME    = SL-16 R/B
OBJECT_ID      = 1987-027B
CENTER_NAME    = EARTH
REF_FRAME      = TEME
TIME_SYSTEM    = UTC
MEAN_ELEMENT_THEORY = SGP/SGP4

EPOCH          = 2026-02-15T22:51:15.497280
MEAN_MOTION    = 14.17163094
ECCENTRICITY   = .00046625
INCLINATION    = 71.0044
RA_OF_ASC_NODE = 322.3009
ARG_OF_PERICENTER = 181.2718
MEAN_ANOMALY   = 178.8395

EPHEMERIS_TYPE = 0
CLASSIFICATION_TYPE = U
NORAD_CAT_ID   = 17590
ELEMENT_SET_NO = 999
REV_AT_EPOCH   = 1226
BSTAR          = .72536933E-4
MEAN_MOTION_DOT = .98E-6
MEAN_MOTION_DDOT = 0

CCSDS_OMM_VERS = 2.0
CREATION_DATE  = 
ORIGINATOR     = 

OBJECT_NAME    = SL-14 R/B
OBJECT_ID      = 1987-038B
CENTER_NAME    = EARTH
REF_FRAME      = TEME
TIME_SYSTEM    = UTC
MEAN_ELEMENT_THEORY = SGP/SGP4

EPOCH          = 2026-02-15T19:22:20.913600
MEAN_MOTION    = 14.85348335
ECCENTRICITY   = .00178749
INCLINATION    = 82.5038
RA_OF_ASC_NODE = 317.4182
ARG_OF_PERICENTER = 234.5051
MEAN_ANOMALY   = 125.4498

EPHEMERIS_TYPE = 0
CLASSIFICATION_TYPE = U
NORAD_CAT_ID   = 17912
ELEMENT_SET_NO = 999
REV_AT_EPOCH   = 7598
BSTAR          = .58406906E-4
MEAN_MOTION_DOT = .527E-5
MEAN_MOTION_DDOT = 0

CCSDS_OMM_VERS = 2.0
CREATION_DATE  = 
ORIGINATOR     = 

OBJECT_NAME    = COSMOS 1844
OBJECT_ID      = 1987-041A
CENTER_NAME    = EARTH
REF_FRAME      = TEME
TIME_SYSTEM    = UTC
MEAN_ELEMENT_THEORY = SGP/SGP4

EPOCH          = 2026-02-15T13:11:15.620640
MEAN_MOTION    = 14.14547294
ECCENTRICITY   = .0029018
INCLINATION    = 70.8979
RA_OF_ASC_NODE = 80.8771
ARG_OF_PERICENTER = 53.2464
MEAN_ANOMALY   = 307.1316

EPHEMERIS_TYPE = 0
CLASSIFICATION_TYPE = U
NORAD_CAT_ID   = 17973
ELEMENT_SET_NO = 999
REV_AT_EPOCH   = 45
BSTAR          = .24566E-3
MEAN_MOTION_DOT = .425E-5
MEAN_MOTION_DDOT = 0

CCSDS_OMM_VERS = 2.0
CREATION_DATE  = 
ORIGINATOR     = 

OBJECT_NAME    = SL-14 R/B
OBJECT_ID      = 1987-055B
CENTER_NAME    = EARTH
REF_FRAME      = TEME
TIME_SYSTEM    = UTC
MEAN_ELEMENT_THEORY = SGP/SGP4

EPOCH          = 2026-02-15T20:31:39.209088
MEAN_MOTION    = 14.85601608
ECCENTRICITY   = .00223619
INCLINATION    = 82.5007
RA_OF_ASC_NODE = 9.6051
ARG_OF_PERICENTER = 85.9767
MEAN_ANOMALY   = 274.4005

EPHEMERIS_TYPE = 0
CLASSIFICATION_TYPE = U
NORAD_CAT_ID   = 18153
ELEMENT_SET_NO = 999
REV_AT_EPOCH   = 6669
BSTAR          = .67439374E-4
MEAN_MOTION_DOT = .611E-5
MEAN_MOTION_DDOT = 0

CCSDS_OMM_VERS = 2.0
CREATION_DATE  = 
ORIGINATOR     = 

OBJECT_NAME    = COSMOS 1867
OBJECT_ID      = 1987-060A
CENTER_NAME    = EARTH
REF_FRAME      = TEME
TIME_SYSTEM    = UTC
MEAN_ELEMENT_THEORY = SGP/SGP4

EPOCH          = 2026-02-15T07:04:59.060064
MEAN_MOTION    = 14.31499471
ECCENTRICITY   = .0014153
INCLINATION    = 65.0120
RA_OF_ASC_NODE = 9.4179
ARG_OF_PERICENTER = 277.2851
MEAN_ANOMALY   = 82.6624

EPHEMERIS_TYPE = 0
CLASSIFICATION_TYPE = U
NORAD_CAT_ID   = 18187
ELEMENT_SET_NO = 999
REV_AT_EPOCH   = 1673
BSTAR          = .32805E-4
MEAN_MOTION_DOT = -.13E-6
MEAN_MOTION_DDOT = 0

CCSDS_OMM_VERS = 2.0
CREATION_DATE  = 
ORIGINATOR     = 

OBJECT_NAME    = SL-14 R/B
OBJECT_ID      = 1988-001B
CENTER_NAME    = EARTH
REF_FRAME      = TEME
TIME_SYSTEM    = UTC
MEAN_ELEMENT_THEORY = SGP/SGP4

EPOCH          = 2026-02-15T20:22:41.638656
MEAN_MOTION    = 14.85500470
ECCENTRICITY   = .00169494
INCLINATION    = 82.5114
RA_OF_ASC_NODE = 215.9013
ARG_OF_PERICENTER = 314.1117
MEAN_ANOMALY   = 45.8703

EPHEMERIS_TYPE = 0
CLASSIFICATION_TYPE = U
NORAD_CAT_ID   = 18749
ELEMENT_SET_NO = 999
REV_AT_EPOCH   = 3878
BSTAR          = .62373244E-4
MEAN_MOTION_DOT = .563E-5
MEAN_MOTION_DDOT = 0

