SL-14 R/B               
1 16792U 86046B   26046.58001985  .00000484  00000+0  52990-4 0  9997
2 16792  82.4802 101.0773 0021744 303.1791  56.7339 14.85568680123125
SL-14 R/B               
1 16882U 86055B   26046.78913262  .00000547  00000+0  60214-4 0  9997
2 16882  82.5231 147.2532 0019999  47.9697  70.5664 14.85620220116119
AJISAI (EGS)            
1 16908U 86061A   26046.96097704 -.00000113  00000+0 -10937-3 0  9994
2 16908  50.0082 160.1635 0011230 230.9729 237.2072 12.44515335465294
COSMOS 1812             
1 17295U 87003A   26046.94367535  .00389110  62663-4  76774-3 0  9995
2 17295  82.4754 220.3944 0002432 305.0117  55.0933 16.00002667140983
SL-14 R/B               
1 17567U 87024B   26046.68882239  .00000479  00000+0  51839-4 0  9990
2 17567  82.5279 113.4435 0017540 338.2754  21.7716 14.86111004 84867
COSMOS 1833             
1 17589U 87027A   26046.91552133 -.00000033  00000+0  83746-5 0  9990
2 17589  70.9225  11.7786 0024891 243.8922 115.9638 14.13057364  7241
SL-16 R/B               
1 17590U 87027B   26046.95226270  .00000098  00000+0  72537-4 0  9991
2 17590  71.0044 322.3009 0004662 181.2718 178.8395 14.17163094 12263
SL-14 R/B               
1 17912U 87038B   26046.80718650  .00000527  00000+0  58407-4 0  9990
2 17912  82.5038 317.4182 0017874 234.5051 125.4498 14.85348335 75987
COSMOS 1844             
1 17973U 87041A   26046.54948635  .00000425  00000+0  24566-3 0  9995
2 17973  70.8979  80.8771 0029018  53.2464 307.1316 14.14547294   455
SL-14 R/B               
1 18153U 87055B   26046.85531492  .00000611  00000+0  67439-4 0  9998
2 18153  82.5007   9.6051 0022361  85.9767 274.4005 14.85601608 66697
COSMOS 1867             
1 18187U 87060A   26046.29512801 -.00000013  00000+0  32805-4 0  9998
2 18187  65.0120   9.4179 0014153 277.2851  82.6624 14.31499471 16735
SL-14 R/B               
1 18749U 88001B   26046.84909304  .00000563  00000+0  62373-4 0  9999
2 18749  82.5114 215.9013 0016949 314.1117  45.8703 14.85500470 38787
